[{"OBJECT_NAME":"STARLINK-31704","OBJECT_ID":"2024-076Y","EPOCH":"2026-03-09T22:00:01.999584","MEAN_MOTION":15.30892355,"ECCENTRICITY":0.00079744,"INCLINATION":42.9978,"RA_OF_ASC_NODE":323.2923,"ARG_OF_PERICENTER":240.5046,"MEAN_ANOMALY":200.4144,"EPHEMERIS_TYPE":0,"CLASSIFICATION_TYPE":"U","NORAD_CAT_ID":59586,"ELEMENT_SET_NO":999,"REV_AT_EPOCH":581,"BSTAR":0.0024766131,"MEAN_MOTION_DOT":0.00076042,"MEAN_MOTION_DDOT":0},{"OBJECT_NAME":"STARLINK-34796","OBJECT_ID":"2025-176H","EPOCH":"2026-03-09T22:26:58.007040","MEAN_MOTION":15.30197867,"ECCENTRICITY":0.00012549,"INCLINATION":53.16,"RA_OF_ASC_NODE":151.9,"ARG_OF_PERICENTER":87.3886,"MEAN_ANOMALY":272.7258,"EPHEMERIS_TYPE":0,"CLASSIFICATION_TYPE":"U","NORAD_CAT_ID":65205,"ELEMENT_SET_NO":999,"REV_AT_EPOCH":3315,"BSTAR":0.00096194988,"MEAN_MOTION_DOT":0.00028237,"MEAN_MOTION_DDOT":0}]
